*******************************************************************************
Ephemeris / WWW_USER Wed Mar 27 21:54:47 2019 Pasadena, USA      / Horizons    
*******************************************************************************
Target body name: Hayabusa 2 (spacecraft) (-37)   {source: hayabusa-2_merged}
Center body name: Earth (399)                     {source: hayabusa-2_merged}
Center-site name: Green Bank (GBT)
*******************************************************************************
Start time      : A.D. 2019-Mar-28 15:00:00.0000 UT      
Stop  time      : A.D. 2019-Mar-29 03:00:00.0000 UT      
Step-size       : 1 minutes
*******************************************************************************
Target pole/equ : No model available
Target radii    : (unavailable)                                                
Center geodetic : 280.160200,38.4330940,0.8760930 {E-lon(deg),Lat(deg),Alt(km)}
Center cylindric: 280.160200,5003.37558,3943.7589 {E-lon(deg),Dxy(km),Dz(km)}
Center pole/equ : High-precision EOP model        {East-longitude positive}
Center radii    : 6378.1 x 6378.1 x 6356.8 km     {Equator, meridian, pole}    
Target primary  : Earth
Vis. interferer : MOON (R_eq= 1737.400) km        {source: hayabusa-2_merged}
Rel. light bend : Sun, EARTH                      {source: hayabusa-2_merged}
Rel. lght bnd GM: 1.3271E+11, 3.9860E+05 km^3/s^2                              
Atmos refraction: NO (AIRLESS)
RA format       : HMS
Time format     : CAL 
RTS-only print  : NO       
EOP file        : eop.190327.p190618                                           
EOP coverage    : DATA-BASED 1962-JAN-20 TO 2019-MAR-27. PREDICTS-> 2019-JUN-17
Units conversion: 1 au= 149597870.700 km, c= 299792.458 km/s, 1 day= 86400.0 s 
Table cut-offs 1: Elevation (-90.0deg=NO ),Airmass (>38.000=NO), Daylight (NO )
Table cut-offs 2: Solar elongation (  0.0,180.0=NO ),Local Hour Angle( 0.0=NO )
Table cut-offs 3: RA/DEC angular rate (     0.0=NO )                           
*******************************************************************************************************************
 Date__(UT)__HR:MN     R.A._(ICRF/J2000.0)_DEC dRA*cosD d(DEC)/dt            delta      deldot    S-O-T /r    S-T-O
*******************************************************************************************************************
$$SOE
 2019-Mar-28 17:10 *   22 33 30.75 -05 24 52.3 104.1576  45.05069 2.13640082805804  -8.3791658  29.6590 /L  21.2644
 2019-Mar-28 17:11 *   22 33 30.87 -05 24 51.6 104.1592  45.05115 2.13639746772631  -8.3777674  29.6592 /L  21.2645
 2019-Mar-28 17:12 *   22 33 30.99 -05 24 50.8 104.1608  45.05162 2.13639410795483  -8.3763720  29.6593 /L  21.2646
 2019-Mar-28 17:13 *   22 33 31.10 -05 24 50.1 104.1625  45.05209 2.13639074874242  -8.3749796  29.6595 /L  21.2647
 2019-Mar-28 17:14 *   22 33 31.22 -05 24 49.3 104.1641  45.05256 2.13638739008789  -8.3735901  29.6597 /L  21.2649
 2019-Mar-28 17:15 *   22 33 31.34 -05 24 48.6 104.1658  45.05302 2.13638403199002  -8.3722036  29.6598 /L  21.2650
 2019-Mar-28 17:16 *   22 33 31.45 -05 24 47.8 104.1675  45.05349 2.13638067444761  -8.3708202  29.6600 /L  21.2651
 2019-Mar-28 17:17 *   22 33 31.57 -05 24 47.1 104.1692  45.05395 2.13637731745942  -8.3694399  29.6601 /L  21.2653
 2019-Mar-28 17:18 *   22 33 31.69 -05 24 46.3 104.1710  45.05442 2.13637396102424  -8.3680626  29.6603 /L  21.2654
 2019-Mar-28 17:19 *   22 33 31.80 -05 24 45.6 104.1727  45.05488 2.13637060514080  -8.3666885  29.6604 /L  21.2655
 2019-Mar-28 17:20 *   22 33 31.92 -05 24 44.8 104.1745  45.05534 2.13636724980785  -8.3653175  29.6606 /L  21.2656
 2019-Mar-28 17:21 *   22 33 32.03 -05 24 44.1 104.1762  45.05580 2.13636389502412  -8.3639497  29.6607 /L  21.2658
 2019-Mar-28 17:22 *   22 33 32.15 -05 24 43.3 104.1780  45.05626 2.13636054078834  -8.3625851  29.6609 /L  21.2659
 2019-Mar-28 17:23 *   22 33 32.27 -05 24 42.6 104.1798  45.05672 2.13635718709920  -8.3612237  29.6610 /L  21.2660
 2019-Mar-28 17:24 *   22 33 32.38 -05 24 41.8 104.1816  45.05718 2.13635383395542  -8.3598656  29.6612 /L  21.2662
 2019-Mar-28 17:25 *   22 33 32.50 -05 24 41.1 104.1834  45.05764 2.13635048135568  -8.3585107  29.6613 /L  21.2663
 2019-Mar-28 17:26 *   22 33 32.62 -05 24 40.3 104.1853  45.05810 2.13634712929866  -8.3571592  29.6615 /L  21.2664
 2019-Mar-28 17:27 *   22 33 32.73 -05 24 39.6 104.1871  45.05856 2.13634377778302  -8.3558110  29.6616 /L  21.2665
 2019-Mar-28 17:28 *   22 33 32.85 -05 24 38.8 104.1890  45.05901 2.13634042680743  -8.3544662  29.6618 /L  21.2667
 2019-Mar-28 17:29 *   22 33 32.96 -05 24 38.1 104.1909  45.05947 2.13633707637052  -8.3531248  29.6620 /L  21.2668
 2019-Mar-28 17:30 *   22 33 33.08 -05 24 37.3 104.1928  45.05992 2.13633372647094  -8.3517867  29.6621 /L  21.2669
 2019-Mar-28 17:31 *   22 33 33.20 -05 24 36.6 104.1947  45.06038 2.13633037710731  -8.3504522  29.6623 /L  21.2671
 2019-Mar-28 17:32 *   22 33 33.31 -05 24 35.8 104.1966  45.06083 2.13632702827824  -8.3491210  29.6624 /L  21.2672
 2019-Mar-28 17:33 *   22 33 33.43 -05 24 35.1 104.1985  45.06128 2.13632367998234  -8.3477934  29.6626 /L  21.2673
 2019-Mar-28 17:34 *   22 33 33.55 -05 24 34.3 104.2005  45.06173 2.13632033221820  -8.3464693  29.6627 /L  21.2674
 2019-Mar-28 17:35 *   22 33 33.66 -05 24 33.6 104.2025  45.06218 2.13631698498441  -8.3451488  29.6629 /L  21.2676
 2019-Mar-28 17:36 *   22 33 33.78 -05 24 32.8 104.2044  45.06263 2.13631363827953  -8.3438318  29.6630 /L  21.2677
 2019-Mar-28 17:37 *   22 33 33.90 -05 24 32.1 104.2064  45.06308 2.13631029210214  -8.3425184  29.6632 /L  21.2678
 2019-Mar-28 17:38 *   22 33 34.01 -05 24 31.3 104.2084  45.06353 2.13630694645077  -8.3412086  29.6633 /L  21.2680
 2019-Mar-28 17:39 *   22 33 34.13 -05 24 30.6 104.2105  45.06398 2.13630360132398  -8.3399025  29.6635 /L  21.2681
 2019-Mar-28 17:40 *   22 33 34.24 -05 24 29.8 104.2125  45.06443 2.13630025672030  -8.3386001  29.6636 /L  21.2682
 2019-Mar-28 17:41 *   22 33 34.36 -05 24 29.1 104.2145  45.06487 2.13629691263824  -8.3373013  29.6638 /L  21.2683
 2019-Mar-28 17:42 *   22 33 34.48 -05 24 28.3 104.2166  45.06532 2.13629356907633  -8.3360063  29.6639 /L  21.2685
 2019-Mar-28 17:43 *   22 33 34.59 -05 24 27.6 104.2187  45.06576 2.13629022603305  -8.3347150  29.6641 /L  21.2686
 2019-Mar-28 17:44 *   22 33 34.71 -05 24 26.8 104.2208  45.06620 2.13628688350690  -8.3334275  29.6643 /L  21.2687
 2019-Mar-28 17:45 *   22 33 34.83 -05 24 26.1 104.2229  45.06665 2.13628354149636  -8.3321438  29.6644 /L  21.2689
 2019-Mar-28 17:46 *   22 33 34.94 -05 24 25.3 104.2250  45.06709 2.13628019999991  -8.3308640  29.6646 /L  21.2690
 2019-Mar-28 17:47 *   22 33 35.06 -05 24 24.6 104.2271  45.06753 2.13627685901599  -8.3295880  29.6647 /L  21.2691
 2019-Mar-28 17:48 *   22 33 35.18 -05 24 23.8 104.2292  45.06797 2.13627351854306  -8.3283158  29.6649 /L  21.2692
 2019-Mar-28 17:49 *   22 33 35.29 -05 24 23.1 104.2314  45.06841 2.13627017857957  -8.3270476  29.6650 /L  21.2694
 2019-Mar-28 17:50 *   22 33 35.41 -05 24 22.3 104.2336  45.06885 2.13626683912394  -8.3257833  29.6652 /L  21.2695
 2019-Mar-28 17:51 *   22 33 35.52 -05 24 21.6 104.2357  45.06928 2.13626350017459  -8.3245229  29.6653 /L  21.2696
 2019-Mar-28 17:52 *   22 33 35.64 -05 24 20.8 104.2379  45.06972 2.13626016172993  -8.3232665  29.6655 /L  21.2698
 2019-Mar-28 17:53 *   22 33 35.76 -05 24 20.1 104.2402  45.07015 2.13625682378836  -8.3220142  29.6656 /L  21.2699
 2019-Mar-28 17:54 *   22 33 35.87 -05 24 19.3 104.2424  45.07059 2.13625348634828  -8.3207658  29.6658 /L  21.2700
 2019-Mar-28 17:55 *   22 33 35.99 -05 24 18.6 104.2446  45.07102 2.13625014940806  -8.3195215  29.6659 /L  21.2701
 2019-Mar-28 17:56 *   22 33 36.11 -05 24 17.8 104.2469  45.07146 2.13624681296608  -8.3182813  29.6661 /L  21.2703
 2019-Mar-28 17:57 *   22 33 36.22 -05 24 17.1 104.2491  45.07189 2.13624347702070  -8.3170451  29.6662 /L  21.2704
 2019-Mar-28 17:58 *   22 33 36.34 -05 24 16.3 104.2514  45.07232 2.13624014157026  -8.3158131  29.6664 /L  21.2705
 2019-Mar-28 17:59 *   22 33 36.46 -05 24 15.6 104.2537  45.07275 2.13623680661311  -8.3145853  29.6665 /L  21.2707
 2019-Mar-28 18:00 *   22 33 36.57 -05 24 14.8 104.2560  45.07318 2.13623347214758  -8.3133616  29.6667 /L  21.2708
 2019-Mar-28 18:01 *   22 33 36.69 -05 24 14.1 104.2583  45.07361 2.13623013817199  -8.3121421  29.6669 /L  21.2709
 2019-Mar-28 18:02 *   22 33 36.80 -05 24 13.3 104.2606  45.07403 2.13622680468466  -8.3109268  29.6670 /L  21.2710
 2019-Mar-28 18:03 *   22 33 36.92 -05 24 12.6 104.2629  45.07446 2.13622347168390  -8.3097158  29.6672 /L  21.2712
 2019-Mar-28 18:04 *   22 33 37.04 -05 24 11.8 104.2653  45.07488 2.13622013916798  -8.3085090  29.6673 /L  21.2713
 2019-Mar-28 18:05 *   22 33 37.15 -05 24 11.1 104.2677  45.07531 2.13621680713519  -8.3073065  29.6675 /L  21.2714
 2019-Mar-28 18:06 *   22 33 37.27 -05 24 10.3 104.2700  45.07573 2.13621347558382  -8.3061083  29.6676 /L  21.2716
 2019-Mar-28 18:07 *   22 33 37.39 -05 24 09.6 104.2724  45.07615 2.13621014451213  -8.3049145  29.6678 /L  21.2717
 2019-Mar-28 18:08 *   22 33 37.50 -05 24 08.8 104.2748  45.07657 2.13620681391837  -8.3037251  29.6679 /L  21.2718
 2019-Mar-28 18:09 *   22 33 37.62 -05 24 08.1 104.2772  45.07700 2.13620348380079  -8.3025400  29.6681 /L  21.2719
 2019-Mar-28 18:10 *   22 33 37.74 -05 24 07.3 104.2797  45.07741 2.13620015415762  -8.3013593  29.6682 /L  21.2721
 2019-Mar-28 18:11 *   22 33 37.85 -05 24 06.6 104.2821  45.07783 2.13619682498710  -8.3001831  29.6684 /L  21.2722
 2019-Mar-28 18:12 *   22 33 37.97 -05 24 05.8 104.2845  45.07825 2.13619349628743  -8.2990113  29.6685 /L  21.2723
 2019-Mar-28 18:13 *   22 33 38.08 -05 24 05.1 104.2870  45.07867 2.13619016805684  -8.2978440  29.6687 /L  21.2725
 2019-Mar-28 18:14 *   22 33 38.20 -05 24 04.3 104.2895  45.07908 2.13618684029351  -8.2966811  29.6688 /L  21.2726
